[
  {
    "name": "KUIPER-00117",
    "noradId": "65949",
    "line1": "1 65949U 25228C   26200.11108626  .00001509  00000+0  22687-3 0  9999",
    "line2": "2 65949  51.8986 136.9272 0000872  71.6491 288.4566 14.79951509 42721"
  },
  {
    "name": "KUIPER-00121",
    "noradId": "65950",
    "line1": "1 65950U 25228D   26200.01521596  .00001512  00000+0  22733-3 0  9991",
    "line2": "2 65950  51.9001 132.3655 0000730 100.4258 259.6787 14.79927573 42787"
  },
  {
    "name": "KUIPER-00122",
    "noradId": "65951",
    "line1": "1 65951U 25228E   26200.27454969  .00001640  00000+0  24402-3 0  9996",
    "line2": "2 65951  51.8992 141.1913 0000811  80.5265 279.5789 14.79933122 42686"
  },
  {
    "name": "KUIPER-00123",
    "noradId": "65952",
    "line1": "1 65952U 25228F   26200.24077040  .00001608  00000+0  23979-3 0  9997",
    "line2": "2 65952  51.8989 141.3524 0000948  67.3053 292.8010 14.79944522 42672"
  },
  {
    "name": "KUIPER-00124",
    "noradId": "65953",
    "line1": "1 65953U 25228G   26200.18132541  .00001690  00000+0  25062-3 0  9995",
    "line2": "2 65953  51.8989 134.1032 0000862  82.5389 277.5671 14.79944550 42778"
  },
  {
    "name": "KUIPER-00125",
    "noradId": "65954",
    "line1": "1 65954U 25228H   26200.13000728  .00001507  00000+0  22666-3 0  9996",
    "line2": "2 65954  51.9010 119.3769 0000837  88.8606 271.2452 14.79932256 42970"
  },
  {
    "name": "KUIPER-00126",
    "noradId": "65955",
    "line1": "1 65955U 25228J   26200.20970404  .00001640  00000+0  24401-3 0  9999",
    "line2": "2 65955  51.8993 139.0093 0000928  82.6110 277.4958 14.79943174 42703"
  },
  {
    "name": "KUIPER-00127",
    "noradId": "65956",
    "line1": "1 65956U 25228K   26199.99833989  .00000579  00000+0  10499-3 0  9991",
    "line2": "2 65956  51.9006 132.4132 0000910  78.7033 281.4032 14.79930267 42787"
  },
  {
    "name": "KUIPER-00128",
    "noradId": "65957",
    "line1": "1 65957U 25228L   26200.18403629  .00001718  00000+0  25430-3 0  9997",
    "line2": "2 65957  51.9015 131.6599 0000911  82.4430 277.6636 14.79945473 42805"
  },
  {
    "name": "KUIPER-00129",
    "noradId": "65958",
    "line1": "1 65958U 25228M   26200.08814021  .00001586  00000+0  23699-3 0  9997",
    "line2": "2 65958  51.9005 127.0646 0000919  86.0658 274.0409 14.79942268 42861"
  },
  {
    "name": "KUIPER-00130",
    "noradId": "65959",
    "line1": "1 65959U 25228N   26200.18674476  .00001589  00000+0  23747-3 0  9994",
    "line2": "2 65959  51.9029 129.1630 0000793  91.0738 269.0316 14.79929886 33131"
  },
  {
    "name": "KUIPER-00134",
    "noradId": "65960",
    "line1": "1 65960U 25228P   26200.28637586  .00019024  00000+0  44870-3 0  9991",
    "line2": "2 65960  51.8719  41.1165 0006677  68.0233 292.1465 15.41901816 44075"
  },
  {
    "name": "KUIPER-00135",
    "noradId": "65961",
    "line1": "1 65961U 25228Q   26200.01793571  .00001572  00000+0  23522-3 0  9990",
    "line2": "2 65961  51.9019 129.9635 0000866  84.1522 275.9540 14.79934118 42815"
  },
  {
    "name": "KUIPER-00136",
    "noradId": "65962",
    "line1": "1 65962U 25228R   26200.18944647  .00001615  00000+0  24084-3 0  9993",
    "line2": "2 65962  51.9009 126.6595 0000933  81.6337 278.4731 14.79933502 42877"
  },
  {
    "name": "KUIPER-00137",
    "noradId": "65963",
    "line1": "1 65963U 25228S   26200.05699737  .00001534  00000+0  23030-3 0  9997",
    "line2": "2 65963  51.9038 124.7403 0000997  83.5258 276.5818 14.79901452 42896"
  },
  {
    "name": "KUIPER-00138",
    "noradId": "65964",
    "line1": "1 65964U 25228T   26200.22855608  .00001845  00000+0  27091-3 0  9994",
    "line2": "2 65964  51.8991 121.4067 0000766  86.3823 273.7227 14.79946057 42957"
  }
]