{"fetched_at":"2026-07-19T17:31:08.183Z","source":"https://celestrak.org/NORAD/elements/gp.php?GROUP=kuiper&FORMAT=JSON","constellation":"kuiper","records":[{"OBJECT_NAME":"KUIPER-00117","OBJECT_ID":"2025-228C","EPOCH":"2026-07-19T02:39:57.852864","CLASSIFICATION_TYPE":"U","MEAN_MOTION":14.79951509,"ECCENTRICITY":0.00008721,"INCLINATION":51.8986,"RA_OF_ASC_NODE":136.9272,"ARG_OF_PERICENTER":71.6491,"MEAN_ANOMALY":288.4566,"EPHEMERIS_TYPE":0,"NORAD_CAT_ID":65949,"ELEMENT_SET_NO":999,"REV_AT_EPOCH":4272,"BSTAR":0.00022686993,"MEAN_MOTION_DOT":0.00001509,"MEAN_MOTION_DDOT":0},{"OBJECT_NAME":"KUIPER-00121","OBJECT_ID":"2025-228D","EPOCH":"2026-07-19T00:21:54.658944","CLASSIFICATION_TYPE":"U","MEAN_MOTION":14.79927573,"ECCENTRICITY":0.00007306,"INCLINATION":51.9001,"RA_OF_ASC_NODE":132.3655,"ARG_OF_PERICENTER":100.4258,"MEAN_ANOMALY":259.6787,"EPHEMERIS_TYPE":0,"NORAD_CAT_ID":65950,"ELEMENT_SET_NO":999,"REV_AT_EPOCH":4278,"BSTAR":0.00022733215,"MEAN_MOTION_DOT":0.00001512,"MEAN_MOTION_DDOT":0},{"OBJECT_NAME":"KUIPER-00122","OBJECT_ID":"2025-228E","EPOCH":"2026-07-19T06:35:21.093216","CLASSIFICATION_TYPE":"U","MEAN_MOTION":14.79933122,"ECCENTRICITY":0.00008118,"INCLINATION":51.8992,"RA_OF_ASC_NODE":141.1913,"ARG_OF_PERICENTER":80.5265,"MEAN_ANOMALY":279.5789,"EPHEMERIS_TYPE":0,"NORAD_CAT_ID":65951,"ELEMENT_SET_NO":999,"REV_AT_EPOCH":4268,"BSTAR":0.0002440165,"MEAN_MOTION_DOT":0.0000164,"MEAN_MOTION_DDOT":0},{"OBJECT_NAME":"KUIPER-00123","OBJECT_ID":"2025-228F","EPOCH":"2026-07-19T05:46:42.562560","CLASSIFICATION_TYPE":"U","MEAN_MOTION":14.79944522,"ECCENTRICITY":0.00009484,"INCLINATION":51.8989,"RA_OF_ASC_NODE":141.3524,"ARG_OF_PERICENTER":67.3053,"MEAN_ANOMALY":292.801,"EPHEMERIS_TYPE":0,"NORAD_CAT_ID":65952,"ELEMENT_SET_NO":999,"REV_AT_EPOCH":4267,"BSTAR":0.00023979325,"MEAN_MOTION_DOT":0.00001608,"MEAN_MOTION_DDOT":0},{"OBJECT_NAME":"KUIPER-00124","OBJECT_ID":"2025-228G","EPOCH":"2026-07-19T04:21:06.515424","CLASSIFICATION_TYPE":"U","MEAN_MOTION":14.7994455,"ECCENTRICITY":0.00008621,"INCLINATION":51.8989,"RA_OF_ASC_NODE":134.1032,"ARG_OF_PERICENTER":82.5389,"MEAN_ANOMALY":277.5671,"EPHEMERIS_TYPE":0,"NORAD_CAT_ID":65953,"ELEMENT_SET_NO":999,"REV_AT_EPOCH":4277,"BSTAR":0.00025062079,"MEAN_MOTION_DOT":0.0000169,"MEAN_MOTION_DDOT":0},{"OBJECT_NAME":"KUIPER-00125","OBJECT_ID":"2025-228H","EPOCH":"2026-07-19T03:07:12.628992","CLASSIFICATION_TYPE":"U","MEAN_MOTION":14.79932256,"ECCENTRICITY":0.00008376,"INCLINATION":51.901,"RA_OF_ASC_NODE":119.3769,"ARG_OF_PERICENTER":88.8606,"MEAN_ANOMALY":271.2452,"EPHEMERIS_TYPE":0,"NORAD_CAT_ID":65954,"ELEMENT_SET_NO":999,"REV_AT_EPOCH":4297,"BSTAR":0.00022666242,"MEAN_MOTION_DOT":0.00001507,"MEAN_MOTION_DDOT":0},{"OBJECT_NAME":"KUIPER-00126","OBJECT_ID":"2025-228J","EPOCH":"2026-07-19T05:01:58.429056","CLASSIFICATION_TYPE":"U","MEAN_MOTION":14.79943174,"ECCENTRICITY":0.00009288,"INCLINATION":51.8993,"RA_OF_ASC_NODE":139.0093,"ARG_OF_PERICENTER":82.611,"MEAN_ANOMALY":277.4958,"EPHEMERIS_TYPE":0,"NORAD_CAT_ID":65955,"ELEMENT_SET_NO":999,"REV_AT_EPOCH":4270,"BSTAR":0.00024400717,"MEAN_MOTION_DOT":0.0000164,"MEAN_MOTION_DDOT":0},{"OBJECT_NAME":"KUIPER-00127","OBJECT_ID":"2025-228K","EPOCH":"2026-07-18T23:57:36.566496","CLASSIFICATION_TYPE":"U","MEAN_MOTION":14.79930267,"ECCENTRICITY":0.000091,"INCLINATION":51.9006,"RA_OF_ASC_NODE":132.4132,"ARG_OF_PERICENTER":78.7033,"MEAN_ANOMALY":281.4032,"EPHEMERIS_TYPE":0,"NORAD_CAT_ID":65956,"ELEMENT_SET_NO":999,"REV_AT_EPOCH":4278,"BSTAR":0.00010498603,"MEAN_MOTION_DOT":0.00000579,"MEAN_MOTION_DDOT":0},{"OBJECT_NAME":"KUIPER-00128","OBJECT_ID":"2025-228L","EPOCH":"2026-07-19T04:25:00.735456","CLASSIFICATION_TYPE":"U","MEAN_MOTION":14.79945473,"ECCENTRICITY":0.00009116,"INCLINATION":51.9015,"RA_OF_ASC_NODE":131.6599,"ARG_OF_PERICENTER":82.443,"MEAN_ANOMALY":277.6636,"EPHEMERIS_TYPE":0,"NORAD_CAT_ID":65957,"ELEMENT_SET_NO":999,"REV_AT_EPOCH":4280,"BSTAR":0.00025429932,"MEAN_MOTION_DOT":0.00001718,"MEAN_MOTION_DDOT":0},{"OBJECT_NAME":"KUIPER-00129","OBJECT_ID":"2025-228M","EPOCH":"2026-07-19T02:06:55.314144","CLASSIFICATION_TYPE":"U","MEAN_MOTION":14.79942268,"ECCENTRICITY":0.00009194,"INCLINATION":51.9005,"RA_OF_ASC_NODE":127.0646,"ARG_OF_PERICENTER":86.0658,"MEAN_ANOMALY":274.0409,"EPHEMERIS_TYPE":0,"NORAD_CAT_ID":65958,"ELEMENT_SET_NO":999,"REV_AT_EPOCH":4286,"BSTAR":0.00023698835,"MEAN_MOTION_DOT":0.00001586,"MEAN_MOTION_DDOT":0},{"OBJECT_NAME":"KUIPER-00130","OBJECT_ID":"2025-228N","EPOCH":"2026-07-19T04:28:54.747264","CLASSIFICATION_TYPE":"U","MEAN_MOTION":14.79929886,"ECCENTRICITY":0.00007938,"INCLINATION":51.9029,"RA_OF_ASC_NODE":129.163,"ARG_OF_PERICENTER":91.0738,"MEAN_ANOMALY":269.0316,"EPHEMERIS_TYPE":0,"NORAD_CAT_ID":65959,"ELEMENT_SET_NO":999,"REV_AT_EPOCH":3313,"BSTAR":0.00023747308,"MEAN_MOTION_DOT":0.00001589,"MEAN_MOTION_DDOT":0},{"OBJECT_NAME":"KUIPER-00134","OBJECT_ID":"2025-228P","EPOCH":"2026-07-19T06:52:22.874304","CLASSIFICATION_TYPE":"U","MEAN_MOTION":15.41901816,"ECCENTRICITY":0.00066771,"INCLINATION":51.8719,"RA_OF_ASC_NODE":41.1165,"ARG_OF_PERICENTER":68.0233,"MEAN_ANOMALY":292.1465,"EPHEMERIS_TYPE":0,"NORAD_CAT_ID":65960,"ELEMENT_SET_NO":999,"REV_AT_EPOCH":4407,"BSTAR":0.00044869814,"MEAN_MOTION_DOT":0.00019024,"MEAN_MOTION_DDOT":0},{"OBJECT_NAME":"KUIPER-00135","OBJECT_ID":"2025-228Q","EPOCH":"2026-07-19T00:25:49.645344","CLASSIFICATION_TYPE":"U","MEAN_MOTION":14.79934118,"ECCENTRICITY":0.00008669,"INCLINATION":51.9019,"RA_OF_ASC_NODE":129.9635,"ARG_OF_PERICENTER":84.1522,"MEAN_ANOMALY":275.954,"EPHEMERIS_TYPE":0,"NORAD_CAT_ID":65961,"ELEMENT_SET_NO":999,"REV_AT_EPOCH":4281,"BSTAR":0.00023522121,"MEAN_MOTION_DOT":0.00001572,"MEAN_MOTION_DDOT":0},{"OBJECT_NAME":"KUIPER-00136","OBJECT_ID":"2025-228R","EPOCH":"2026-07-19T04:32:48.175008","CLASSIFICATION_TYPE":"U","MEAN_MOTION":14.79933502,"ECCENTRICITY":0.00009337,"INCLINATION":51.9009,"RA_OF_ASC_NODE":126.6595,"ARG_OF_PERICENTER":81.6337,"MEAN_ANOMALY":278.4731,"EPHEMERIS_TYPE":0,"NORAD_CAT_ID":65962,"ELEMENT_SET_NO":999,"REV_AT_EPOCH":4287,"BSTAR":0.00024084339,"MEAN_MOTION_DOT":0.00001615,"MEAN_MOTION_DDOT":0},{"OBJECT_NAME":"KUIPER-00137","OBJECT_ID":"2025-228S","EPOCH":"2026-07-19T01:22:04.572768","CLASSIFICATION_TYPE":"U","MEAN_MOTION":14.79901452,"ECCENTRICITY":0.00009978,"INCLINATION":51.9038,"RA_OF_ASC_NODE":124.7403,"ARG_OF_PERICENTER":83.5258,"MEAN_ANOMALY":276.5818,"EPHEMERIS_TYPE":0,"NORAD_CAT_ID":65963,"ELEMENT_SET_NO":999,"REV_AT_EPOCH":4289,"BSTAR":0.00023029738,"MEAN_MOTION_DOT":0.00001534,"MEAN_MOTION_DDOT":0},{"OBJECT_NAME":"KUIPER-00138","OBJECT_ID":"2025-228T","EPOCH":"2026-07-19T05:29:07.245312","CLASSIFICATION_TYPE":"U","MEAN_MOTION":14.79946057,"ECCENTRICITY":0.0000766,"INCLINATION":51.8991,"RA_OF_ASC_NODE":121.4067,"ARG_OF_PERICENTER":86.3823,"MEAN_ANOMALY":273.7227,"EPHEMERIS_TYPE":0,"NORAD_CAT_ID":65964,"ELEMENT_SET_NO":999,"REV_AT_EPOCH":4295,"BSTAR":0.00027091461,"MEAN_MOTION_DOT":0.00001845,"MEAN_MOTION_DDOT":0}]}
